[{"OBJECT_NAME":"STARLINK-1549","OBJECT_ID":"2020-055AZ","EPOCH":"2026-03-09T19:03:49.743936","MEAN_MOTION":15.0641022,"ECCENTRICITY":0.00013646,"INCLINATION":53.0536,"RA_OF_ASC_NODE":96.1488,"ARG_OF_PERICENTER":91.9931,"MEAN_ANOMALY":268.1215,"EPHEMERIS_TYPE":0,"CLASSIFICATION_TYPE":"U","NORAD_CAT_ID":46074,"ELEMENT_SET_NO":999,"REV_AT_EPOCH":30931,"BSTAR":1.1303856e-5,"MEAN_MOTION_DOT":-1.13e-6,"MEAN_MOTION_DDOT":0},{"OBJECT_NAME":"DELTA 1 DEB","OBJECT_ID":"1978-026BU","EPOCH":"2026-03-09T11:22:20.910432","MEAN_MOTION":14.96481719,"ECCENTRICITY":0.00669454,"INCLINATION":98.7967,"RA_OF_ASC_NODE":254.5698,"ARG_OF_PERICENTER":166.8222,"MEAN_ANOMALY":193.4765,"EPHEMERIS_TYPE":0,"CLASSIFICATION_TYPE":"U","NORAD_CAT_ID":12227,"ELEMENT_SET_NO":999,"REV_AT_EPOCH":38498,"BSTAR":0.0006297912,"MEAN_MOTION_DOT":7.412e-5,"MEAN_MOTION_DDOT":0}]
